{
  "type": "FeatureCollection",
  "features": [
    {
      "type": "Feature",
      "properties": {
        "norad_id": 65731,
        "name": "1998-067XK",
        "group": "stations",
        "lat": -29.47359230292547,
        "lon": 47.48481731682159,
        "alt_km": 364.52102323795043,
        "timestamp": "2025-12-25T03:55:54.991337+00:00",
        "meta_object_name": "1998-067XK",
        "meta_object_id": "1998-067XK",
        "meta_epoch": "2025-12-24T05:09:13.323456",
        "meta_mean_motion": 15.67922599,
        "meta_eccentricity": 0.0005005,
        "meta_inclination": 51.629,
        "meta_ra_of_asc_node": 78.9215,
        "meta_arg_of_pericenter": 318.0201,
        "meta_mean_anomaly": 42.0411,
        "meta_ephemeris_type": 0,
        "meta_classification_type": "U",
        "meta_norad_cat_id": 65731,
        "meta_element_set_no": 999,
        "meta_rev_at_epoch": 1494,
        "meta_bstar": 0.00097770635,
        "meta_mean_motion_dot": 0.00111192,
        "meta_mean_motion_ddot": 0,
        "tle_line1": "1 65731U 98067XK  25358.21473754  .00111192  00000+0  97771-3 0  9996",
        "tle_line2": "2 65731  51.6290  78.9215 0005005 318.0201  42.0411 15.67922599 14949"
      },
      "geometry": {
        "type": "Point",
        "coordinates": [
          47.48481731682159,
          -29.47359230292547
        ]
      }
    },
    {
      "type": "Feature",
      "properties": {
        "norad_id": 65732,
        "name": "RSP-03",
        "group": "stations",
        "lat": 50.58138725979079,
        "lon": 147.67109825839756,
        "alt_km": 348.1748824295664,
        "timestamp": "2025-12-25T03:55:54.991347+00:00",
        "meta_object_name": "RSP-03",
        "meta_object_id": "1998-067XL",
        "meta_epoch": "2025-12-24T13:51:31.108032",
        "meta_mean_motion": 15.71657044,
        "meta_eccentricity": 0.0005943,
        "meta_inclination": 51.626,
        "meta_ra_of_asc_node": 76.0777,
        "meta_arg_of_pericenter": 326.3891,
        "meta_mean_anomaly": 33.6729,
        "meta_ephemeris_type": 0,
        "meta_classification_type": "U",
        "meta_norad_cat_id": 65732,
        "meta_element_set_no": 999,
        "meta_rev_at_epoch": 1502,
        "meta_bstar": 0.0011208,
        "meta_mean_motion_dot": 0.00149733,
        "meta_mean_motion_ddot": 0,
        "tle_line1": "1 65732U 98067XL  25358.57744338  .00149733  00000+0  11208-2 0  9997",
        "tle_line2": "2 65732  51.6260  76.0777 0005943 326.3891  33.6729 15.71657044 15020"
      },
      "geometry": {
        "type": "Point",
        "coordinates": [
          147.67109825839756,
          50.58138725979079
        ]
      }
    },
    {
      "type": "Feature",
      "properties": {
        "norad_id": 65733,
        "name": "GHS-01",
        "group": "stations",
        "lat": -24.76709222129631,
        "lon": 49.60586137269626,
        "alt_km": 326.98981717286824,
        "timestamp": "2025-12-25T03:55:54.991358+00:00",
        "meta_object_name": "GHS-01",
        "meta_object_id": "1998-067XM",
        "meta_epoch": "2025-12-23T11:05:04.304832",
        "meta_mean_motion": 15.79591896,
        "meta_eccentricity": 0.00088003,
        "meta_inclination": 51.6283,
        "meta_ra_of_asc_node": 79.8731,
        "meta_arg_of_pericenter": 346.0913,
        "meta_mean_anomaly": 13.9844,
        "meta_ephemeris_type": 0,
        "meta_classification_type": "U",
        "meta_norad_cat_id": 65733,
        "meta_element_set_no": 999,
        "meta_rev_at_epoch": 1487,
        "meta_bstar": 0.0014327729,
        "meta_mean_motion_dot": 0.00275731,
        "meta_mean_motion_ddot": 0,
        "tle_line1": "1 65733U 98067XM  25357.46185538  .00275731  00000+0  14328-2 0  9990",
        "tle_line2": "2 65733  51.6283  79.8731 0008800 346.0913  13.9844 15.79591896 14877"
      },
      "geometry": {
        "type": "Point",
        "coordinates": [
          49.60586137269626,
          -24.76709222129631
        ]
      }
    },
    {
      "type": "Feature",
      "properties": {
        "norad_id": 65941,
        "name": "YOTSUBA-KULOVER",
        "group": "stations",
        "lat": 26.788532741041838,
        "lon": -126.12429635569696,
        "alt_km": 382.5292553085101,
        "timestamp": "2025-12-25T03:55:54.991371+00:00",
        "meta_object_name": "YOTSUBA-KULOVER",
        "meta_object_id": "1998-067XN",
        "meta_epoch": "2025-12-24T05:48:16.557984",
        "meta_mean_motion": 15.6097178,
        "meta_eccentricity": 0.00023493,
        "meta_inclination": 51.6293,
        "meta_ra_of_asc_node": 82.1031,
        "meta_arg_of_pericenter": 352.2605,
        "meta_mean_anomaly": 7.8352,
        "meta_ephemeris_type": 0,
        "meta_classification_type": "U",
        "meta_norad_cat_id": 65941,
        "meta_element_set_no": 999,
        "meta_rev_at_epoch": 1165,
        "meta_bstar": 0.00086929736,
        "meta_mean_motion_dot": 0.00074548,
        "meta_mean_motion_ddot": 0,
        "tle_line1": "1 65941U 98067XN  25358.24185831  .00074548  00000+0  86930-3 0  9996",
        "tle_line2": "2 65941  51.6293  82.1031 0002349 352.2605   7.8352 15.60971780 11651"
      },
      "geometry": {
        "type": "Point",
        "coordinates": [
          -126.12429635569696,
          26.788532741041838
        ]
      }
    },
    {
      "type": "Feature",
      "properties": {
        "norad_id": 65942,
        "name": "BOTAN",
        "group": "stations",
        "lat": -48.420894677476745,
        "lon": 13.138794515277878,
        "alt_km": 374.91253198305185,
        "timestamp": "2025-12-25T03:55:54.991382+00:00",
        "meta_object_name": "BOTAN",
        "meta_object_id": "1998-067XP",
        "meta_epoch": "2025-12-23T23:07:45.899616",
        "meta_mean_motion": 15.65195853,
        "meta_eccentricity": 0.00032883,
        "meta_inclination": 51.6282,
        "meta_ra_of_asc_node": 82.4941,
        "meta_arg_of_pericenter": 330.2787,
        "meta_mean_anomaly": 29.802,
        "meta_ephemeris_type": 0,
        "meta_classification_type": "U",
        "meta_norad_cat_id": 65942,
        "meta_element_set_no": 999,
        "meta_rev_at_epoch": 1162,
        "meta_bstar": 0.0010936719,
        "meta_mean_motion_dot": 0.00111413,
        "meta_mean_motion_ddot": 0,
        "tle_line1": "1 65942U 98067XP  25357.96372569  .00111413  00000+0  10937-2 0  9997",
        "tle_line2": "2 65942  51.6282  82.4941 0003288 330.2787  29.8020 15.65195853 11620"
      },
      "geometry": {
        "type": "Point",
        "coordinates": [
          13.138794515277878,
          -48.420894677476745
        ]
      }
    },
    {
      "type": "Feature",
      "properties": {
        "norad_id": 65943,
        "name": "E-KAGAKU-1",
        "group": "stations",
        "lat": 27.21917769344718,
        "lon": -126.58808652317506,
        "alt_km": 381.9023936065869,
        "timestamp": "2025-12-25T03:55:54.991394+00:00",
        "meta_object_name": "E-KAGAKU-1",
        "meta_object_id": "1998-067XQ",
        "meta_epoch": "2025-12-22T10:46:55.533504",
        "meta_mean_motion": 15.60710313,
        "meta_eccentricity": 0.00012968,
        "meta_inclination": 51.6319,
        "meta_ra_of_asc_node": 91.1385,
        "meta_arg_of_pericenter": 295.9007,
        "meta_mean_anomaly": 64.1852,
        "meta_ephemeris_type": 0,
        "meta_classification_type": "U",
        "meta_norad_cat_id": 65943,
        "meta_element_set_no": 999,
        "meta_rev_at_epoch": 1137,
        "meta_bstar": 0.00086344374,
        "meta_mean_motion_dot": 0.00073283,
        "meta_mean_motion_ddot": 0,
        "tle_line1": "1 65943U 98067XQ  25356.44925386  .00073283  00000+0  86344-3 0  9999",
        "tle_line2": "2 65943  51.6319  91.1385 0001296 295.9007  64.1852 15.60710313 11376"
      },
      "geometry": {
        "type": "Point",
        "coordinates": [
          -126.58808652317506,
          27.21917769344718
        ]
      }
    },
    {
      "type": "Feature",
      "properties": {
        "norad_id": 66052,
        "name": "HRC MONOBLOCK CAMERA",
        "group": "stations",
        "lat": -38.640347759788085,
        "lon": -61.1809806517794,
        "alt_km": 404.91793742467144,
        "timestamp": "2025-12-25T03:55:54.991405+00:00",
        "meta_object_name": "HRC MONOBLOCK CAMERA",
        "meta_object_id": "1998-067XR",
        "meta_epoch": "2025-12-23T23:10:15.977280",
        "meta_mean_motion": 15.54901889,
        "meta_eccentricity": 0.0002152,
        "meta_inclination": 51.6306,
        "meta_ra_of_asc_node": 85.5033,
        "meta_arg_of_pericenter": 238.968,
        "meta_mean_anomaly": 121.11,
        "meta_ephemeris_type": 0,
        "meta_classification_type": "U",
        "meta_norad_cat_id": 66052,
        "meta_element_set_no": 999,
        "meta_rev_at_epoch": 1058,
        "meta_bstar": 0.0005004,
        "meta_mean_motion_dot": 0.00033738,
        "meta_mean_motion_ddot": 0,
        "tle_line1": "1 66052U 98067XR  25357.96546270  .00033738  00000+0  50040-3 0  9995",
        "tle_line2": "2 66052  51.6306  85.5033 0002152 238.9680 121.1100 15.54901889 10582"
      },
      "geometry": {
        "type": "Point",
        "coordinates": [
          -61.1809806517794,
          -38.640347759788085
        ]
      }
    }
  ]
}